start=new Date('2022-09-15T00:00:00.000Z').valueOf();
sats=[{"MEAN_MOTION":"15.73238846","PERIOD":"91.531","APOAPSIS":"352.060","CENTER_NAME":"EARTH","OBJECT_TYPE":"PAYLOAD","NORAD_CAT_ID":"53183","LAUNCH_DATE":"2022-07-17","MEAN_ANOMALY":"59.9343","SEMIMAJOR_AXIS":"6727.784","OBJECT_ID":"2022-083BD","TIME_SYSTEM":"UTC","TLE_LINE2":"2 53183  53.2152 113.2158 0003583   7.8768  59.9343 15.73238846  1300","RCS_SIZE":"LARGE","DECAY_DATE":null,"REF_FRAME":"TEME","EPOCH":"2022-09-14T22:00:00.999936","MEAN_ELEMENT_THEORY":"SGP4","FILE":"3574287","CLASSIFICATION_TYPE":"U","COUNTRY_CODE":"US","EPHEMERIS_TYPE":"0","OBJECT_NAME":"STARLINK-4268","ELEMENT_SET_NO":"999","ARG_OF_PERICENTER":"7.8768","RA_OF_ASC_NODE":"113.2158","REV_AT_EPOCH":"130","PERIAPSIS":"347.239","GP_ID":"212615417","MEAN_MOTION_DOT":"-0.00034067","BSTAR":"-0.00023877000000","MEAN_MOTION_DDOT":"0.0000000000000","INCLINATION":"53.2152","ECCENTRICITY":"0.00035830","TLE_LINE1":"1 53183U 22083BD  22257.91667824 -.00034067  00000-0 -23877-3 0  9998","SITE":"AFETR"},{"MEAN_ANOMALY":"53.0139","OBJECT_TYPE":"PAYLOAD","LAUNCH_DATE":"2022-07-17","NORAD_CAT_ID":"53184","PERIOD":"91.529","MEAN_MOTION":"15.73267057","APOAPSIS":"351.434","CENTER_NAME":"EARTH","TLE_LINE2":"2 53184  53.2157 113.2170 0002772  15.9218  53.0139 15.73267057  1303","TIME_SYSTEM":"UTC","OBJECT_ID":"2022-083BE","SEMIMAJOR_AXIS":"6727.704","ARG_OF_PERICENTER":"15.9218","RA_OF_ASC_NODE":"113.2170","REV_AT_EPOCH":"130","OBJECT_NAME":"STARLINK-4257","ELEMENT_SET_NO":"999","CLASSIFICATION_TYPE":"U","EPHEMERIS_TYPE":"0","COUNTRY_CODE":"US","DECAY_DATE":null,"REF_FRAME":"TEME","RCS_SIZE":"LARGE","MEAN_ELEMENT_THEORY":"SGP4","FILE":"3574287","EPOCH":"2022-09-14T22:00:00.999936","ECCENTRICITY":"0.00027720","SITE":"AFETR","TLE_LINE1":"1 53184U 22083BE  22257.91667824 -.00065106  00000-0 -46160-3 0  9997","INCLINATION":"53.2157","MEAN_MOTION_DDOT":"0.0000000000000","GP_ID":"212615148","PERIAPSIS":"347.704","BSTAR":"-0.00046160000000","MEAN_MOTION_DOT":"-0.00065106"},{"TIME_SYSTEM":"UTC","TLE_LINE2":"2 53189  97.6526 317.9317 0001909  88.9054 250.6202 15.01256925  1304","OBJECT_ID":"2022-084A","SEMIMAJOR_AXIS":"6941.156","MEAN_ANOMALY":"250.6202","NORAD_CAT_ID":"53189","LAUNCH_DATE":"2022-07-22","OBJECT_TYPE":"PAYLOAD","APOAPSIS":"564.346","CENTER_NAME":"EARTH","MEAN_MOTION":"15.01256925","PERIOD":"95.920","TLE_LINE1":"1 53189U 22084A   22257.91667824 -.00006507  00000-0 -50250-3 0  9998","SITE":"AFWTR","ECCENTRICITY":"0.00019090","INCLINATION":"97.6526","MEAN_MOTION_DDOT":"0.0000000000000","MEAN_MOTION_DOT":"-0.00006507","BSTAR":"-0.00050250000000","PERIAPSIS":"561.696","GP_ID":"212615264","RA_OF_ASC_NODE":"317.9317","ARG_OF_PERICENTER":"88.9054","REV_AT_EPOCH":"130","ELEMENT_SET_NO":"999","OBJECT_NAME":"STARLINK-4391","COUNTRY_CODE":"US","EPHEMERIS_TYPE":"0","CLASSIFICATION_TYPE":"U","EPOCH":"2022-09-14T22:00:00.999936","FILE":"3574287","MEAN_ELEMENT_THEORY":"SGP4","RCS_SIZE":"LARGE","DECAY_DATE":null,"REF_FRAME":"TEME"},{"OBJECT_NAME":"STARLINK-4332","ELEMENT_SET_NO":"999","ARG_OF_PERICENTER":"110.2977","RA_OF_ASC_NODE":"317.9222","REV_AT_EPOCH":"130","RCS_SIZE":"LARGE","REF_FRAME":"TEME","DECAY_DATE":null,"EPOCH":"2022-09-14T22:00:00.999936","MEAN_ELEMENT_THEORY":"SGP4","FILE":"3574287","CLASSIFICATION_TYPE":"U","COUNTRY_CODE":"US","EPHEMERIS_TYPE":"0","INCLINATION":"97.6532","ECCENTRICITY":"0.00017500","TLE_LINE1":"1 53190U 22084B   22257.91667824 -.00003840  00000-0 -29474-3 0  9991","SITE":"AFWTR","GP_ID":"212615717","PERIAPSIS":"561.867","MEAN_MOTION_DOT":"-0.00003840","BSTAR":"-0.00029474000000","MEAN_MOTION_DDOT":"0.0000000000000","OBJECT_TYPE":"PAYLOAD","NORAD_CAT_ID":"53190","LAUNCH_DATE":"2022-07-22","MEAN_ANOMALY":"67.8809","MEAN_MOTION":"15.01237181","PERIOD":"95.921","APOAPSIS":"564.297","CENTER_NAME":"EARTH","OBJECT_ID":"2022-084B","SEMIMAJOR_AXIS":"6941.217","TLE_LINE2":"2 53190  97.6532 317.9222 0001750 110.2977  67.8809 15.01237181  1309","TIME_SYSTEM":"UTC"},{"SEMIMAJOR_AXIS":"6941.068","OBJECT_ID":"2022-084C","TIME_SYSTEM":"UTC","TLE_LINE2":"2 53191  97.6546 317.9219 0001612  98.4717 271.0661 15.01285669  1306","OBJECT_TYPE":"PAYLOAD","NORAD_CAT_ID":"53191","LAUNCH_DATE":"2022-07-22","MEAN_ANOMALY":"271.0661","MEAN_MOTION":"15.01285669","PERIOD":"95.918","CENTER_NAME":"EARTH","APOAPSIS":"564.052","INCLINATION":"97.6546","ECCENTRICITY":"0.00016120","TLE_LINE1":"1 53191U 22084C   22257.91667824 -.00051925  00000-0 -40651-2 0  9998","SITE":"AFWTR","PERIAPSIS":"561.814","GP_ID":"212615003","MEAN_MOTION_DOT":"-0.00051925","BSTAR":"-0.00406510000000","MEAN_MOTION_DDOT":"0.0000000000000","OBJECT_NAME":"STARLINK-4369","ELEMENT_SET_NO":"999","REV_AT_EPOCH":"130","ARG_OF_PERICENTER":"98.4717","RA_OF_ASC_NODE":"317.9219","RCS_SIZE":"LARGE","DECAY_DATE":null,"REF_FRAME":"TEME","EPOCH":"2022-09-14T22:00:00.999936","FILE":"3574287","MEAN_ELEMENT_THEORY":"SGP4","CLASSIFICATION_TYPE":"U","EPHEMERIS_TYPE":"0","COUNTRY_CODE":"US"},{"RA_OF_ASC_NODE":"317.9235","ARG_OF_PERICENTER":"111.3990","REV_AT_EPOCH":"130","OBJECT_NAME":"STARLINK-4375","ELEMENT_SET_NO":"999","CLASSIFICATION_TYPE":"U","COUNTRY_CODE":"US","EPHEMERIS_TYPE":"0","DECAY_DATE":null,"REF_FRAME":"TEME","RCS_SIZE":"LARGE","MEAN_ELEMENT_THEORY":"SGP4","FILE":"3574287","EPOCH":"2022-09-14T22:00:00.999936","ECCENTRICITY":"0.00019180","SITE":"AFWTR","TLE_LINE1":"1 53192U 22084D   22257.91667824 -.00032333  00000-0 -25240-2 0  9998","INCLINATION":"97.6552","MEAN_MOTION_DDOT":"0.0000000000000","PERIAPSIS":"561.671","GP_ID":"212615562","BSTAR":"-0.00252400000000","MEAN_MOTION_DOT":"-0.00032333","MEAN_ANOMALY":"268.1552","OBJECT_TYPE":"PAYLOAD","LAUNCH_DATE":"2022-07-22","NORAD_CAT_ID":"53192","PERIOD":"95.919","MEAN_MOTION":"15.01263188","CENTER_NAME":"EARTH","APOAPSIS":"564.333","TLE_LINE2":"2 53192  97.6552 317.9235 0001918 111.3990 268.1552 15.01263188  1307","TIME_SYSTEM":"UTC","OBJECT_ID":"2022-084D","SEMIMAJOR_AXIS":"6941.137"},{"PERIAPSIS":"561.648","GP_ID":"212614850","MEAN_MOTION_DOT":"-0.00006189","BSTAR":"-0.00047758000000","MEAN_MOTION_DDOT":"0.0000000000000","INCLINATION":"97.6521","ECCENTRICITY":"0.00019430","TLE_LINE1":"1 53193U 22084E   22257.91667824 -.00006189  00000-0 -47758-3 0  9998","SITE":"AFWTR","RCS_SIZE":"LARGE","REF_FRAME":"TEME","DECAY_DATE":null,"EPOCH":"2022-09-14T22:00:00.999936","MEAN_ELEMENT_THEORY":"SGP4","FILE":"3574287","CLASSIFICATION_TYPE":"U","EPHEMERIS_TYPE":"0","COUNTRY_CODE":"US","OBJECT_NAME":"STARLINK-4351","ELEMENT_SET_NO":"999","RA_OF_ASC_NODE":"317.9358","ARG_OF_PERICENTER":"99.9563","REV_AT_EPOCH":"130","OBJECT_ID":"2022-084E","SEMIMAJOR_AXIS":"6941.132","TLE_LINE2":"2 53193  97.6521 317.9358 0001943  99.9563 249.5515 15.01264812  1302","TIME_SYSTEM":"UTC","MEAN_MOTION":"15.01264812","PERIOD":"95.919","CENTER_NAME":"EARTH","APOAPSIS":"564.346","OBJECT_TYPE":"PAYLOAD","NORAD_CAT_ID":"53193","LAUNCH_DATE":"2022-07-22","MEAN_ANOMALY":"249.5515"},{"COUNTRY_CODE":"US","EPHEMERIS_TYPE":"0","CLASSIFICATION_TYPE":"U","MEAN_ELEMENT_THEORY":"SGP4","FILE":"3574287","EPOCH":"2022-09-14T22:00:00.999936","DECAY_DATE":null,"REF_FRAME":"TEME","RCS_SIZE":"LARGE","REV_AT_EPOCH":"130","ARG_OF_PERICENTER":"85.1366","RA_OF_ASC_NODE":"317.9219","ELEMENT_SET_NO":"999","OBJECT_NAME":"STARLINK-4382","MEAN_MOTION_DDOT":"0.0000000000000","BSTAR":"-0.00184080000000","MEAN_MOTION_DOT":"-0.00023636","GP_ID":"212615931","PERIAPSIS":"561.798","SITE":"AFWTR","TLE_LINE1":"1 53194U 22084F   22257.91667824 -.00023636  00000-0 -18408-2 0  9994","ECCENTRICITY":"0.00016590","INCLINATION":"97.6546","APOAPSIS":"564.101","CENTER_NAME":"EARTH","PERIOD":"95.918","MEAN_MOTION":"15.01280104","MEAN_ANOMALY":"274.3821","LAUNCH_DATE":"2022-07-22","NORAD_CAT_ID":"53194","OBJECT_TYPE":"PAYLOAD","TLE_LINE2":"2 53194  97.6546 317.9219 0001659  85.1366 274.3821 15.01280104  1306","TIME_SYSTEM":"UTC","SEMIMAJOR_AXIS":"6941.085","OBJECT_ID":"2022-084F"},{"TLE_LINE2":"2 53195  97.6540 318.0896 0002303 118.6353 302.4055 15.00449907  1308","TIME_SYSTEM":"UTC","OBJECT_ID":"2022-084G","SEMIMAJOR_AXIS":"6943.645","PERIOD":"95.971","MEAN_MOTION":"15.00449907","CENTER_NAME":"EARTH","APOAPSIS":"567.109","MEAN_ANOMALY":"302.4055","OBJECT_TYPE":"PAYLOAD","LAUNCH_DATE":"2022-07-22","NORAD_CAT_ID":"53195","MEAN_MOTION_DDOT":"0.0000000000000","PERIAPSIS":"563.911","GP_ID":"212615418","BSTAR":"-0.00067325000000","MEAN_MOTION_DOT":"-0.00008515","ECCENTRICITY":"0.00023030","SITE":"AFWTR","TLE_LINE1":"1 53195U 22084G   22257.91667824 -.00008515  00000-0 -67325-3 0  9997","INCLINATION":"97.6540","CLASSIFICATION_TYPE":"U","COUNTRY_CODE":"US","EPHEMERIS_TYPE":"0","REF_FRAME":"TEME","DECAY_DATE":null,"RCS_SIZE":"LARGE","FILE":"3574287","MEAN_ELEMENT_THEORY":"SGP4","EPOCH":"2022-09-14T22:00:00.999936","ARG_OF_PERICENTER":"118.6353","RA_OF_ASC_NODE":"318.0896","REV_AT_EPOCH":"130","OBJECT_NAME":"STARLINK-4404","ELEMENT_SET_NO":"999"},{"TIME_SYSTEM":"UTC","TLE_LINE2":"2 53196  97.6552 317.9227 0001994  95.0817 283.1320 15.01255269  1303","OBJECT_ID":"2022-084H","SEMIMAJOR_AXIS":"6941.161","MEAN_ANOMALY":"283.1320","OBJECT_TYPE":"PAYLOAD","NORAD_CAT_ID":"53196","LAUNCH_DATE":"2022-07-22","MEAN_MOTION":"15.01255269","PERIOD":"95.920","APOAPSIS":"564.410","CENTER_NAME":"EARTH","ECCENTRICITY":"0.00019940","TLE_LINE1":"1 53196U 22084H   22257.91667824 -.00008023  00000-0 -62079-3 0  9993","SITE":"AFWTR","INCLINATION":"97.6552","MEAN_MOTION_DDOT":"0.0000000000000","PERIAPSIS":"561.642","GP_ID":"212615149","MEAN_MOTION_DOT":"-0.00008023","BSTAR":"-0.00062079000000","RA_OF_ASC_NODE":"317.9227","ARG_OF_PERICENTER":"95.0817","REV_AT_EPOCH":"130","OBJECT_NAME":"STARLINK-4407","ELEMENT_SET_NO":"999","CLASSIFICATION_TYPE":"U","EPHEMERIS_TYPE":"0","COUNTRY_CODE":"US","RCS_SIZE":"LARGE","REF_FRAME":"TEME","DECAY_DATE":null,"EPOCH":"2022-09-14T22:00:00.999936","FILE":"3574287","MEAN_ELEMENT_THEORY":"SGP4"}];
